{
"type": "FeatureCollection",
"name": "water_50m",
"crs": { "type": "name", "properties": { "name": "urn:ogc:def:crs:OGC:1.3:CRS84" } },
"features": [
{ "type": "Feature", "properties": {  }, "geometry": { "type": "MultiPolygon", "coordinates": [ [ [ [ 14.915795680369596, 57.621260829653096 ], [ 14.915871079427649, 57.621630948270237 ], [ 14.915871079427649, 57.621779121461216 ], [ 14.915880332816011, 57.62184443731482 ], [ 14.915907881164351, 57.621908257927991 ], [ 14.915957017066097, 57.621992458292439 ], [ 14.915987861793695, 57.622097067569577 ], [ 14.915988532706061, 57.622099304929471 ], [ 14.916095421445092, 57.622449892577478 ], [ 14.916141569200958, 57.622539423609574 ], [ 14.916222316135162, 57.622621623298834 ], [ 14.916333945988539, 57.622692708586818 ], [ 14.916476691358987, 57.622765962629579 ], [ 14.916411645405313, 57.622772427341765 ], [ 14.916261489185791, 57.622804933023424 ], [ 14.916126445228908, 57.622852813236584 ], [ 14.916094537968339, 57.622866776829333 ], [ 14.915985379342397, 57.622924637656268 ], [ 14.915898625169252, 57.622992508795463 ], [ 14.915837406514482, 57.623067940644781 ], [ 14.915803932835177, 57.623148210737178 ], [ 14.915799412237893, 57.623230422003388 ], [ 14.915824007876578, 57.623311607333882 ], [ 14.915876832064173, 57.623388836666017 ], [ 14.916293096919032, 57.623854759028291 ], [ 14.916277194177106, 57.623856901086036 ], [ 14.916125114563458, 57.623886313729699 ], [ 14.915987006932468, 57.623931343249545 ], [ 14.915868395477393, 57.623990188447294 ], [ 14.915774024560276, 57.62406049550215 ], [ 14.915707668941284, 57.624139452131317 ], [ 14.915671982791379, 57.624223900088154 ], [ 14.91566839352762, 57.624310461496691 ], [ 14.91569704471765, 57.624395673968067 ], [ 14.915710494294059, 57.62442088028601 ], [ 14.915767684587191, 57.62449867588758 ], [ 14.915851735260597, 57.624569134139392 ], [ 14.915959511523504, 57.624629627249277 ], [ 14.916086993705157, 57.624677899094451 ], [ 14.916229427174208, 57.624712149358629 ], [ 14.91638149966955, 57.624731100669919 ], [ 14.916537539428706, 57.6247340462361 ], [ 14.916691726724411, 57.624720876201891 ], [ 14.918174727454005, 57.62451396319409 ], [ 14.919450277069165, 57.626019562048043 ], [ 14.919453856023216, 57.626023727609478 ], [ 14.919812515586916, 57.626435414329983 ], [ 14.919886357911206, 57.626503308076828 ], [ 14.919981902643739, 57.626562937233217 ], [ 14.920096002539799, 57.62661233765904 ], [ 14.920224899147358, 57.626649882148172 ], [ 14.920986885540133, 57.626825925772202 ], [ 14.921903504011862, 57.627048587832313 ], [ 14.92228445143474, 57.627460027267645 ], [ 14.922704310917617, 57.628013637757213 ], [ 14.922706451937222, 57.628016432782459 ], [ 14.922916494229122, 57.628287932150094 ], [ 14.922923957254287, 57.628309408919151 ], [ 14.922969644825699, 57.628392991352321 ], [ 14.923008524130365, 57.628432373556556 ], [ 14.923011949588844, 57.628445619427922 ], [ 14.923004974395733, 57.628548700147078 ], [ 14.922980581076864, 57.628634525124333 ], [ 14.922972503321049, 57.628722460692593 ], [ 14.922997825039934, 57.628809452245996 ], [ 14.923055498705683, 57.628891901072215 ], [ 14.923185511876726, 57.629032320110163 ], [ 14.923261948684004, 57.62909896686697 ], [ 14.923359536849663, 57.629157161827017 ], [ 14.923475090645116, 57.62920500528265 ], [ 14.923510429137115, 57.629214791375084 ], [ 14.923509637871447, 57.629217718213255 ], [ 14.923517062402611, 57.62930048909115 ], [ 14.923553811091198, 57.629380985558534 ], [ 14.923618537130256, 57.629456257515649 ], [ 14.923708868367669, 57.62952354635236 ], [ 14.923821494243438, 57.629580386042896 ], [ 14.923952287118784, 57.629624693516114 ], [ 14.924096453550435, 57.629654844990526 ], [ 14.924248709966115, 57.629669735477471 ], [ 14.924403476302786, 57.629668819272602 ], [ 14.92446465696354, 57.62966530353826 ], [ 14.92461120539515, 57.629649437873404 ], [ 14.924749791084446, 57.629619395787714 ], [ 14.924875674418653, 57.629576204683154 ], [ 14.924984550203909, 57.629521341646168 ], [ 14.925072694902344, 57.629456682937494 ], [ 14.925137093976586, 57.629384439830773 ], [ 14.925175544986571, 57.629307082993535 ], [ 14.925254001148536, 57.629058650488091 ], [ 14.925265200159435, 57.6289791678863 ], [ 14.925248988480265, 57.628899933265011 ], [ 14.925226572818957, 57.628841124946284 ], [ 14.92516933269629, 57.628747267574809 ], [ 14.925073856906575, 57.628662796262951 ], [ 14.924945112791027, 57.628592105898818 ], [ 14.924884588798786, 57.628565701991107 ], [ 14.924782490653719, 57.628527758535469 ], [ 14.924670736873818, 57.628498641689063 ], [ 14.924659202836157, 57.628496204064668 ], [ 14.92465289589553, 57.628411219934243 ], [ 14.924652333127939, 57.62840482807016 ], [ 14.924643724572588, 57.628320335350921 ], [ 14.924618682522688, 57.628234521629786 ], [ 14.924562147528011, 57.628153111822989 ], [ 14.924540685740817, 57.628134659262393 ], [ 14.92452560805892, 57.628088913526902 ], [ 14.924479041812591, 57.62800198629877 ], [ 14.923845083648608, 57.627161840126838 ], [ 14.923819906761729, 57.627131814466502 ], [ 14.923245491629721, 57.626511067991849 ], [ 14.92314600975849, 57.626428625331386 ], [ 14.923014398574328, 57.6263603013957 ], [ 14.922857424271173, 57.626309608839065 ], [ 14.921173087178952, 57.62589697768172 ], [ 14.91938394391404, 57.623803702320416 ], [ 14.919348722612055, 57.623771391260412 ], [ 14.919323851208235, 57.623733179095282 ], [ 14.918595958955251, 57.622893421343967 ], [ 14.918623474916947, 57.622879046168464 ], [ 14.918716296510983, 57.622805045779771 ], [ 14.918943435530572, 57.622576092878596 ], [ 14.918976503269944, 57.622538512515867 ], [ 14.919115824798538, 57.622358214615979 ], [ 14.919394849558552, 57.622102069927095 ], [ 14.919982750868771, 57.62182882753639 ], [ 14.920470240231262, 57.621629602078421 ], [ 14.92053620174082, 57.621599517604658 ], [ 14.921057284792713, 57.62133478221353 ], [ 14.921072521746293, 57.621326834536347 ], [ 14.921745067915687, 57.620966675884659 ], [ 14.921977491536472, 57.62086986837754 ], [ 14.922367838380897, 57.620785122935118 ], [ 14.92238554571038, 57.620781146864061 ], [ 14.923187211253085, 57.62059511276933 ], [ 14.923309732787553, 57.620559682049162 ], [ 14.92341908473292, 57.620513518305223 ], [ 14.923512023434169, 57.620457990832847 ], [ 14.923585792094578, 57.620394746678414 ], [ 14.923639520002629, 57.620338400050272 ], [ 14.923815326975433, 57.620327323671766 ], [ 14.923912839457307, 57.620317906032014 ], [ 14.924461243039593, 57.620246116424624 ], [ 14.925025510549633, 57.620776023763227 ], [ 14.925006303649447, 57.620778525011566 ], [ 14.924866678419628, 57.620812701178416 ], [ 14.924741633817435, 57.620860395119209 ], [ 14.924635678481934, 57.620919887120174 ], [ 14.924552632764859, 57.62098903207098 ], [ 14.924495490983102, 57.621065336816791 ], [ 14.924492636137126, 57.621070529886168 ], [ 14.924463799822727, 57.621149389997761 ], [ 14.924462674151739, 57.621229745396455 ], [ 14.924489297901772, 57.621308827963809 ], [ 14.924542753926309, 57.621383913446209 ], [ 14.924621200748991, 57.621452415298748 ], [ 14.92472193599958, 57.621511973783235 ], [ 14.924841489506393, 57.62156053725159 ], [ 14.924975742838274, 57.621596432815267 ], [ 14.924982734426148, 57.621597885602775 ], [ 14.925130952529639, 57.621620259724132 ], [ 14.925284403957223, 57.621627178461281 ], [ 14.925437521493587, 57.621618390811335 ], [ 14.925584750036986, 57.621594215578931 ], [ 14.925720748138257, 57.621555529811666 ], [ 14.925840581788473, 57.621503736984927 ], [ 14.925939903424755, 57.62144071609027 ], [ 14.925946673128717, 57.621435480259663 ], [ 14.926022914932181, 57.6213622529432 ], [ 14.926071371687904, 57.621282529275859 ], [ 14.926088662032409, 57.621206203980414 ], [ 14.927062813385634, 57.621463086359185 ], [ 14.92698780630986, 57.621727033732697 ], [ 14.926980005210508, 57.621766692466387 ], [ 14.926971831439751, 57.6218409463225 ], [ 14.926974938490721, 57.621891237366519 ], [ 14.926198696749148, 57.621898089170173 ], [ 14.926049212353451, 57.621906899682735 ], [ 14.92590536118392, 57.621930383329868 ], [ 14.92577212051885, 57.621967727545481 ], [ 14.925654100511034, 57.622017640172217 ], [ 14.925555384675576, 57.622078394175837 ], [ 14.925479388599486, 57.622147887407522 ], [ 14.925463696828119, 57.622165893517213 ], [ 14.925409809202618, 57.622248752496844 ], [ 14.925388224777272, 57.622335727735312 ], [ 14.925399830046505, 57.62242324705413 ], [ 14.925444148370049, 57.622507715954299 ], [ 14.925519359549027, 57.622585665244635 ], [ 14.92562237458341, 57.622653893519612 ], [ 14.925748962540395, 57.622709598636042 ], [ 14.92589392432313, 57.622750492789798 ], [ 14.926051306202968, 57.622774896468314 ], [ 14.926214644345162, 57.622781807421333 ], [ 14.927449153226039, 57.622766828320557 ], [ 14.927483429004392, 57.622766022511939 ], [ 14.928145428079972, 57.622742914305611 ], [ 14.92821866777939, 57.622738555574486 ], [ 14.928233797422898, 57.622737279078294 ], [ 14.933413180667067, 57.62536319575257 ], [ 14.933423076218878, 57.625381060224321 ], [ 14.933507957946073, 57.625463169507675 ], [ 14.933586863265656, 57.625523087679738 ], [ 14.933594545203599, 57.62552800775147 ], [ 14.933547318015281, 57.625569664609166 ], [ 14.933493151335611, 57.625649179818268 ], [ 14.933468915507842, 57.625732818546268 ], [ 14.933475536991173, 57.62581738353132 ], [ 14.933512762667196, 57.625899642125731 ], [ 14.933579169515806, 57.625976449869071 ], [ 14.933672219012786, 57.626044870687082 ], [ 14.93378835416955, 57.626102289121924 ], [ 14.934621938697955, 57.626439950479217 ], [ 14.935324881187574, 57.626724689983796 ], [ 14.93548760525667, 57.626775822706776 ], [ 14.935668032420677, 57.6268053687727 ], [ 14.936108948918296, 57.626848292463706 ], [ 14.936264748810954, 57.626855233613739 ], [ 14.936420130873888, 57.626845989434948 ], [ 14.93692647639913, 57.626788912936568 ], [ 14.937074721665066, 57.626772490485465 ], [ 14.937226534692227, 57.626922226658728 ], [ 14.937313160636633, 57.626991006172162 ], [ 14.937422699804394, 57.62704967495398 ], [ 14.937551129364063, 57.627096078443813 ], [ 14.937693732733614, 57.627128512520784 ], [ 14.937845272797125, 57.627145786080348 ], [ 14.938312911479503, 57.627174401611818 ], [ 14.938435505783939, 57.627176887094464 ], [ 14.938557391027125, 57.627169412195691 ], [ 14.938904779428977, 57.627133643013401 ], [ 14.93904510531789, 57.627112003553997 ], [ 14.939175872120444, 57.627077201604507 ], [ 14.93929281365901, 57.627030372518981 ], [ 14.939392114795757, 57.626973044021263 ], [ 14.939470535898916, 57.626907086369627 ], [ 14.939684313376945, 57.626685313538481 ], [ 14.939742399331029, 57.626607286631675 ], [ 14.940009621178611, 57.626113657606766 ], [ 14.940039069231911, 57.626027254520906 ], [ 14.940035340342602, 57.625939446973149 ], [ 14.939997318039264, 57.625776574577131 ], [ 14.94005793810943, 57.625706663007215 ], [ 14.940233446698764, 57.625544340965227 ], [ 14.940531822901564, 57.625443916811882 ], [ 14.94064051488971, 57.625400093675189 ], [ 14.940733943158184, 57.625347131399835 ], [ 14.94080946167403, 57.625286529922953 ], [ 14.941023239152091, 57.625079055785847 ], [ 14.941081485775744, 57.625008195768771 ], [ 14.941115229301882, 57.624932913414916 ], [ 14.941182035212927, 57.624689665669152 ], [ 14.941189863705112, 57.624607733183119 ], [ 14.941168685369465, 57.624526480903242 ], [ 14.941119260772231, 57.624448826813392 ], [ 14.94104336487257, 57.624377559695063 ], [ 14.940943723279378, 57.624315238970787 ], [ 14.940724021408441, 57.624201651905722 ], [ 14.940735912398576, 57.624147444688226 ], [ 14.940749273041774, 57.623932809767993 ], [ 14.940746592911651, 57.623880336740172 ], [ 14.940706510083695, 57.623637081946157 ], [ 14.940677988425715, 57.623555185576372 ], [ 14.940620700947516, 57.623477730643103 ], [ 14.94053676898128, 57.623407585308399 ], [ 14.940429300493825, 57.623347347074905 ], [ 14.940302274999846, 57.623299246594279 ], [ 14.940021691610738, 57.62321339077377 ], [ 14.939882130181671, 57.623179631334907 ], [ 14.939733184359731, 57.623160569579618 ], [ 14.93958019813819, 57.623156889443656 ], [ 14.939045753544736, 57.623171198783403 ], [ 14.938927804988971, 57.623182315727689 ], [ 14.938849841363911, 57.623153311191018 ], [ 14.93869930636162, 57.623118818870104 ], [ 14.938271750507194, 57.623047272011753 ], [ 14.938078077966786, 57.623028312114059 ], [ 14.937850939845527, 57.623021157176247 ], [ 14.93769739789461, 57.623024151739813 ], [ 14.937547686458469, 57.623042646525491 ], [ 14.937407212360789, 57.623075973571822 ], [ 14.93728104881909, 57.623122929234867 ], [ 14.937173752225604, 57.623181817663443 ], [ 14.937089197593346, 57.623250512051641 ], [ 14.936621558910932, 57.62372271655196 ], [ 14.936597566698671, 57.623749060571249 ], [ 14.936263538940048, 57.624149713423115 ], [ 14.936213075885563, 57.62423105632498 ], [ 14.936193530687664, 57.624316128409944 ], [ 14.936180170044466, 57.62462376839612 ], [ 14.936195651592415, 57.624718733993809 ], [ 14.936201731423417, 57.624735011670126 ], [ 14.935982372053351, 57.62464917624208 ], [ 14.935835551922073, 57.624603545208338 ], [ 14.93567417382755, 57.624575336196415 ], [ 14.935505352675067, 57.62456579293849 ], [ 14.935024353349458, 57.62456579293849 ], [ 14.934864478124535, 57.62457434165988 ], [ 14.934710916981409, 57.624599650190611 ], [ 14.934569734634724, 57.624640718966859 ], [ 14.934479688990049, 57.624673505926943 ], [ 14.929725043015704, 57.622269200059392 ], [ 14.929980614887871, 57.622163705090905 ], [ 14.930023687680633, 57.622144618460801 ], [ 14.930561676127873, 57.621888934661399 ], [ 14.930574709311319, 57.621882603391938 ], [ 14.931036483791546, 57.621653326700226 ], [ 14.931073443820766, 57.621633755340312 ], [ 14.931245768540034, 57.621536441635762 ], [ 14.931335525698371, 57.621475680873957 ], [ 14.931386596321419, 57.621424417767919 ], [ 14.931430224607231, 57.621418576776342 ], [ 14.931476369462073, 57.621412627902551 ], [ 14.93159600749625, 57.621391814154556 ], [ 14.931708168339989, 57.621361314176916 ], [ 14.931799985145187, 57.621331321123684 ], [ 14.931875953760441, 57.62130036725528 ], [ 14.931939935060509, 57.621286436746146 ], [ 14.932060053016638, 57.621245932174922 ], [ 14.932083007667101, 57.62123658998626 ], [ 14.932209755334618, 57.621172334034362 ], [ 14.932255067287658, 57.621136596505977 ], [ 14.932322171126421, 57.621105228782419 ], [ 14.932427091733944, 57.62102872916671 ], [ 14.932456455063877, 57.620992924588947 ], [ 14.932500648548762, 57.620966572969124 ], [ 14.932892305029478, 57.620671554576091 ], [ 14.932969632702978, 57.62059955768602 ], [ 14.933019865883104, 57.620520978035259 ], [ 14.933041155979273, 57.620438707336994 ], [ 14.933044025198301, 57.620401829873607 ], [ 14.933040146066714, 57.620337785311555 ], [ 14.933018658506723, 57.620274748650772 ], [ 14.932996923122419, 57.620230027199909 ], [ 14.932926687313877, 57.620044852226989 ], [ 14.932891277828436, 57.61997885249415 ], [ 14.93274207574459, 57.619766034518022 ], [ 14.93269314631687, 57.61970913515249 ], [ 14.932585547908763, 57.619604646249655 ], [ 14.932493866932393, 57.619533487925843 ], [ 14.9323776150482, 57.619473502732475 ], [ 14.93224142715424, 57.619427082306331 ], [ 14.932090732986214, 57.619396077458845 ], [ 14.931948681305688, 57.61938326981155 ], [ 14.931934824460269, 57.619316603335008 ], [ 14.931924316866386, 57.619290342783579 ], [ 14.931877625772513, 57.619211424091972 ], [ 14.931803741575186, 57.619138706855558 ], [ 14.931705365290318, 57.619074849473826 ], [ 14.931586093301433, 57.619022186460342 ], [ 14.931450285885184, 57.618982643091435 ], [ 14.931302907810824, 57.618957665015472 ], [ 14.931149346841076, 57.618948165397128 ], [ 14.929641629643907, 57.618932614989568 ], [ 14.929753662179657, 57.618285163775056 ], [ 14.929753572487595, 57.618204742804906 ], [ 14.92972571448424, 57.618125717692017 ], [ 14.929671049191514, 57.618050814595932 ], [ 14.9295914624066, 57.61798261749361 ], [ 14.929489699647323, 57.617923479035092 ], [ 14.929369271439581, 57.617875439377698 ], [ 14.929234332214174, 57.617840155799826 ], [ 14.929089536990761, 57.617818845523061 ], [ 14.928939880792914, 57.61781224371633 ], [ 14.928893384892111, 57.617812513135469 ], [ 14.928725035018152, 57.617823003461993 ], [ 14.928564467893514, 57.617852060190494 ], [ 14.92841873985537, 57.617898406341737 ], [ 14.92829425511739, 57.61796000511076 ], [ 14.92819648432797, 57.618034149387576 ], [ 14.928129724155299, 57.618117580736843 ], [ 14.928096908464509, 57.618206632605684 ], [ 14.927775925550041, 57.620114885059145 ], [ 14.92795157451298, 57.618444886370789 ], [ 14.927945461498412, 57.618362116196977 ], [ 14.927910028958475, 57.618281483964445 ], [ 14.927846573705903, 57.618205940795207 ], [ 14.927757418170266, 57.61813825157023 ], [ 14.92764582539829, 57.618080893730514 ], [ 14.92751587962799, 57.618035966596722 ], [ 14.927372336807668, 57.618005114527335 ], [ 14.927220450530678, 57.617989466729114 ], [ 14.927194771289951, 57.617988166788145 ], [ 14.927032775140491, 57.617988697204368 ], [ 14.926874228495258, 57.618006513741037 ], [ 14.926725496964972, 57.618040901043827 ], [ 14.926592552085785, 57.618090478426076 ], [ 14.926480731563485, 57.618153255310162 ], [ 14.92639452496589, 57.618226711157831 ], [ 14.926337393467728, 57.6183078966789 ], [ 14.926311630885285, 57.61839355225333 ], [ 14.926231749077388, 57.61911349016421 ], [ 14.926215912035573, 57.619090275332141 ], [ 14.926142418294356, 57.61902313980255 ], [ 14.926008807370602, 57.618922962869057 ], [ 14.92592260142378, 57.61886846402227 ], [ 14.925849831699889, 57.618829492269285 ], [ 14.925838453898535, 57.618597951125501 ], [ 14.925819354918302, 57.618515109887667 ], [ 14.925770930071682, 57.618435770461282 ], [ 14.925694978993279, 57.618362881405737 ], [ 14.925454892558159, 57.618177154595401 ], [ 14.925188082865398, 57.617969959919904 ], [ 14.92503235313986, 57.617879732397014 ], [ 14.924818575661797, 57.617786707800072 ], [ 14.924709425714672, 57.617746679695841 ], [ 14.924589548681118, 57.617716720230099 ], [ 14.924228798737772, 57.617645162733005 ], [ 14.924065639053779, 57.617622816318175 ], [ 14.923897374994574, 57.617619057924799 ], [ 14.923731307625481, 57.617634050637257 ], [ 14.923574642696291, 57.617667143891438 ], [ 14.923258270824805, 57.617755360340325 ], [ 14.923217785608276, 57.617717997473989 ], [ 14.923004008130247, 57.617546258769146 ], [ 14.922889722146543, 57.617473320423173 ], [ 14.922748432730385, 57.617415523751276 ], [ 14.922586972269496, 57.617375663727479 ], [ 14.922226222326117, 57.617311261622497 ], [ 14.922082495908439, 57.617293211903423 ], [ 14.921935037404527, 57.617289459754595 ], [ 14.921788763201709, 57.617300130280164 ], [ 14.921441374799855, 57.617343065203009 ], [ 14.921296347694668, 57.617368932100739 ], [ 14.921163003336062, 57.617408956171573 ], [ 14.921046108314465, 57.617461706652307 ], [ 14.920834745507898, 57.617577066115985 ], [ 14.920768505113291, 57.617620922908301 ], [ 14.92058533467633, 57.617645447915066 ], [ 14.920543657719355, 57.617651667170826 ], [ 14.920196268419204, 57.617708913169537 ], [ 14.920047667918276, 57.617742408747056 ], [ 14.919939443915858, 57.617781902382049 ], [ 14.919926514644128, 57.617780253714329 ], [ 14.919783451170904, 57.617769126573748 ], [ 14.91963897461727, 57.617771822761298 ], [ 14.919425197139205, 57.617786134222129 ], [ 14.919272249756874, 57.617804577611821 ], [ 14.919128824400602, 57.617838483499426 ], [ 14.919000314245475, 57.617886576892396 ], [ 14.918891551615346, 57.617947049299048 ], [ 14.918806626274545, 57.618017626740553 ], [ 14.918735788724531, 57.61809133402965 ], [ 14.918733605377842, 57.6180942613504 ], [ 14.918616715789955, 57.618100452679926 ], [ 14.91844093150125, 57.618120514991674 ], [ 14.918277766979971, 57.618160880473418 ], [ 14.91813528587083, 57.61821955418641 ], [ 14.917750007428637, 57.618418389463294 ], [ 14.917636343139309, 57.618491583267982 ], [ 14.917555292987222, 57.618576310650852 ], [ 14.917394176547738, 57.618803280678854 ], [ 14.917351072457453, 57.61889039671054 ], [ 14.917342745511489, 57.618978611572572 ], [ 14.9172133496452, 57.618985058055884 ], [ 14.917072110382067, 57.619006359064741 ], [ 14.916940386179684, 57.619040980640257 ], [ 14.916822515917787, 57.619087782342049 ], [ 14.916448405331206, 57.619266668477572 ], [ 14.916332042188884, 57.619335697766516 ], [ 14.916051459698076, 57.619543204705664 ], [ 14.915964504874475, 57.61962493433554 ], [ 14.915912561543855, 57.619714792096815 ], [ 14.915898081393163, 57.619808536725458 ], [ 14.915905188405317, 57.619953171559942 ], [ 14.915801425539149, 57.620044695704721 ], [ 14.915723373755613, 57.620135964765517 ], [ 14.915686667683717, 57.620234406378735 ], [ 14.915646584855761, 57.620499149787989 ], [ 14.915649764982566, 57.620586016995198 ], [ 14.91574269067395, 57.620998345944294 ], [ 14.915795680369596, 57.621260829653096 ] ], [ [ 14.931259819144607, 57.620387340967824 ], [ 14.931129279938183, 57.620456089279152 ], [ 14.931036692970055, 57.62053399058636 ], [ 14.930995885479797, 57.620544195765781 ], [ 14.930915660071939, 57.620577029180403 ], [ 14.930908160041341, 57.620577315547926 ], [ 14.930703447048595, 57.620599622589168 ], [ 14.930458269858084, 57.620644639043476 ], [ 14.930312833170904, 57.620680300462404 ], [ 14.93018335343409, 57.620730597612159 ], [ 14.930088785089184, 57.620775613904229 ], [ 14.929985581288966, 57.620834889306622 ], [ 14.929904813710962, 57.620903426041892 ], [ 14.929849312327223, 57.620978822642876 ], [ 14.929821096377191, 57.621058227480056 ], [ 14.929475203688941, 57.62122588162854 ], [ 14.928951532365902, 57.621477552135076 ], [ 14.928689433842139, 57.621586512714565 ], [ 14.928813306333341, 57.621138079887167 ], [ 14.928918384522966, 57.621112757783948 ], [ 14.92904494165743, 57.621064906688467 ], [ 14.929152131709319, 57.621005006943477 ], [ 14.929236018796802, 57.620935257937624 ], [ 14.929293522693145, 57.620858220716613 ], [ 14.929322531928714, 57.620776723951899 ], [ 14.929487980141365, 57.619820576297975 ], [ 14.931048363367804, 57.619839257705813 ], [ 14.931052906985684, 57.619884499555631 ], [ 14.931092950309946, 57.619967652218413 ], [ 14.931162849978467, 57.620044936972185 ], [ 14.931241414905775, 57.620113501732554 ], [ 14.931338208238534, 57.62025545203857 ], [ 14.931360221618709, 57.62031402728897 ], [ 14.931265846340485, 57.620385361601791 ], [ 14.931259819144607, 57.620387340967824 ] ], [ [ 14.926172784867383, 57.619644907407817 ], [ 14.926132045714509, 57.620012070612844 ], [ 14.925995584646472, 57.619876163638935 ], [ 14.926059529766768, 57.619820282614739 ], [ 14.926109709201612, 57.619753751748419 ], [ 14.926172784867383, 57.619644907407817 ] ] ], [ [ [ 14.921731009778618, 57.624864111511634 ], [ 14.921987542572602, 57.624827481451547 ], [ 14.922124143131562, 57.624800725546152 ], [ 14.922249579821633, 57.624761296707561 ], [ 14.922359792642748, 57.624710471087283 ], [ 14.922451214344679, 57.62464989371054 ], [ 14.922520885887964, 57.624581525237375 ], [ 14.922682657009087, 57.624381915598804 ], [ 14.922742486429145, 57.624337557413035 ], [ 14.922812666299391, 57.624275026301646 ], [ 14.922862240443504, 57.624207072727273 ], [ 14.922930648949, 57.624083442928466 ], [ 14.922961379336192, 57.623995015461645 ], [ 14.922957322078547, 57.62390509598233 ], [ 14.922918652311695, 57.623817565959321 ], [ 14.922847039255339, 57.62373620374526 ], [ 14.922745574159656, 57.623664521475121 ], [ 14.922618636868382, 57.62360561345227 ], [ 14.922471706758397, 57.623562022568557 ], [ 14.922453964271213, 57.623557984752232 ], [ 14.922403886929246, 57.623525349877752 ], [ 14.922300577375854, 57.623469305466294 ], [ 14.922180018072259, 57.623424209063224 ], [ 14.922046197926321, 57.623391552802197 ], [ 14.921903544603239, 57.623372417205296 ], [ 14.921756778028765, 57.623367435427618 ], [ 14.921448938855622, 57.623372014371178 ], [ 14.92127931718081, 57.623384241924363 ], [ 14.921118303098449, 57.62341531556438 ], [ 14.920973112402756, 57.623463842690121 ], [ 14.920776437051099, 57.623546263848169 ], [ 14.920647593355342, 57.623613960552923 ], [ 14.920550010722922, 57.623695277479676 ], [ 14.920488553518279, 57.623786161011218 ], [ 14.920385939861665, 57.624015105805285 ], [ 14.920364676240297, 57.624138309935354 ], [ 14.920381778366673, 57.624316885479089 ], [ 14.920386046100971, 57.624344336410388 ], [ 14.920411699290547, 57.624463386034883 ], [ 14.920448828883424, 57.624552211352729 ], [ 14.920519822712604, 57.624634916021023 ], [ 14.920621542302932, 57.624707843908638 ], [ 14.920749490863468, 57.624767771107642 ], [ 14.920898012080363, 57.624812048443218 ], [ 14.921060540169584, 57.624838718575297 ], [ 14.921368380241052, 57.624870769869965 ], [ 14.921550401604426, 57.624878474381326 ], [ 14.921731009778618, 57.624864111511634 ] ] ], [ [ [ 14.926377558094639, 57.631685897593499 ], [ 14.926546010195921, 57.631771205395907 ], [ 14.926654960634865, 57.631840822027868 ], [ 14.926651881312866, 57.631875732841173 ], [ 14.926661155192221, 57.631964597310898 ], [ 14.926704185220519, 57.63205056726094 ], [ 14.926779151893955, 57.632130007526747 ], [ 14.926882885283229, 57.632199559068496 ], [ 14.927010999072449, 57.632256280997417 ], [ 14.927449410168764, 57.632412749981548 ], [ 14.927595046321141, 57.632453932986841 ], [ 14.927753250569658, 57.632478460670157 ], [ 14.928442182934081, 57.632545518409778 ], [ 14.928611297057529, 57.632552301209792 ], [ 14.928850682541521, 57.632548417720159 ], [ 14.928847555122099, 57.632587181947173 ], [ 14.928864657248473, 57.632751982676133 ], [ 14.928912088681528, 57.632875886672423 ], [ 14.929048906590856, 57.633077307868987 ], [ 14.929121272015255, 57.633157195511934 ], [ 14.929222565421021, 57.633227497106873 ], [ 14.929334590497378, 57.633290624254954 ], [ 14.929406784899223, 57.633349733439992 ], [ 14.929420931388149, 57.633366256666847 ], [ 14.929441019893742, 57.633465732056045 ], [ 14.929475564133169, 57.633552392930739 ], [ 14.929542353603114, 57.63363347106668 ], [ 14.929638588661122, 57.633705567925411 ], [ 14.929677457648621, 57.633729149998373 ], [ 14.929584936211038, 57.633786739889011 ], [ 14.929499868658761, 57.633873480326741 ], [ 14.929453421763773, 57.633968240178 ], [ 14.929421650026431, 57.634086210856417 ], [ 14.929367650498078, 57.634286715500842 ], [ 14.929363332514791, 57.634329456466425 ], [ 14.929294597120514, 57.634315443646656 ], [ 14.928918348543545, 57.634260512358203 ], [ 14.928784302159746, 57.634247316436145 ], [ 14.928657886265039, 57.634246431026035 ], [ 14.928650538408816, 57.634241456334948 ], [ 14.928640382308281, 57.634152655021744 ], [ 14.928611728719055, 57.6340619844636 ], [ 14.9285479377962, 57.633976601049987 ], [ 14.928394017760464, 57.633820961131981 ], [ 14.928310479251749, 57.633752873443449 ], [ 14.928204587741345, 57.633694371442701 ], [ 14.927794134911625, 57.633506687149548 ], [ 14.927657477742672, 57.633456202461645 ], [ 14.927504437405096, 57.633421727213289 ], [ 14.927308942734866, 57.633389875496256 ], [ 14.927087794665908, 57.633353448478573 ], [ 14.926901422002977, 57.633335184570512 ], [ 14.926712226958079, 57.633340642837368 ], [ 14.926318438775182, 57.633377108501207 ], [ 14.92615901774545, 57.633401084382882 ], [ 14.926012065557456, 57.633441945390423 ], [ 14.925883746960158, 57.633497977322143 ], [ 14.925627651645696, 57.633635463841131 ], [ 14.925546354509077, 57.633686462867331 ], [ 14.925503861917013, 57.633723450162243 ], [ 14.925445547547262, 57.633728801686843 ], [ 14.925414200021995, 57.633710494862662 ], [ 14.925410567427786, 57.633661878715337 ], [ 14.92544712798677, 57.633343136829517 ], [ 14.9255160042519, 57.633311116366286 ], [ 14.925645850822464, 57.633234338354484 ], [ 14.925737906390779, 57.633143244028531 ], [ 14.925843149413309, 57.633000514386779 ], [ 14.926042286876861, 57.632818888211283 ], [ 14.926106000697843, 57.632745996237347 ], [ 14.926143405411088, 57.632668049467696 ], [ 14.926153207807184, 57.632587742766262 ], [ 14.92613506898363, 57.632507852605194 ], [ 14.926049558351725, 57.632297272614771 ], [ 14.925966268411045, 57.632179018690991 ], [ 14.925709734718732, 57.631931813897801 ], [ 14.92569626289502, 57.631919326580011 ], [ 14.925439730101004, 57.63169043112174 ], [ 14.92529941584284, 57.631597354265075 ], [ 14.925220573778322, 57.631557783322457 ], [ 14.925179598955076, 57.63148077090721 ], [ 14.925098361666747, 57.631399429340497 ], [ 14.924824726746387, 57.631184264964531 ], [ 14.924717155396321, 57.63111604070339 ], [ 14.924585726667775, 57.63106108358059 ], [ 14.924436032548762, 57.631021731959045 ], [ 14.924274442177367, 57.630999660211813 ], [ 14.923752824627831, 57.630958457871174 ], [ 14.923583241670629, 57.630954703882587 ], [ 14.923474868581067, 57.630964603431224 ], [ 14.923536244005717, 57.630882456871085 ], [ 14.923573029151187, 57.630819808446645 ], [ 14.923591687899433, 57.630754901623384 ], [ 14.923618410084192, 57.630568918601149 ], [ 14.923615843410456, 57.630487906168241 ], [ 14.9235851206893, 57.630408569002007 ], [ 14.923527318450882, 57.63033368711212 ], [ 14.923273457246532, 57.630076168437071 ], [ 14.923209089194101, 57.630021270378045 ], [ 14.923130130870899, 57.629972133842237 ], [ 14.922804353991017, 57.629797717354506 ], [ 14.922500774809004, 57.629589674957714 ], [ 14.922406045927255, 57.629535159530832 ], [ 14.922295267955928, 57.629490142534415 ], [ 14.922171718851477, 57.629455956073578 ], [ 14.922039054472361, 57.629433611768562 ], [ 14.921558055146754, 57.629376384242775 ], [ 14.921406535489684, 57.629366265260948 ], [ 14.921254164569568, 57.629371579482047 ], [ 14.92110637742609, 57.629392137342229 ], [ 14.920812432495454, 57.629449364843211 ], [ 14.920678380493726, 57.6294832015342 ], [ 14.920558117116967, 57.629529570529655 ], [ 14.920455683517657, 57.629586913669989 ], [ 14.920374521722838, 57.629653304034292 ], [ 14.920317358973314, 57.629726510696031 ], [ 14.920286116081504, 57.629804073693535 ], [ 14.920265609513296, 57.629894651930194 ], [ 14.920232672093279, 57.630040132432718 ], [ 14.920227523475472, 57.630110559494952 ], [ 14.920243791550169, 57.63018050012861 ], [ 14.92031059746121, 57.630352178634411 ], [ 14.920372138727229, 57.630449991843825 ], [ 14.920504692759772, 57.630599021453314 ], [ 14.920694141034788, 57.63081539583785 ], [ 14.920899233746837, 57.63108989781454 ], [ 14.920968214525059, 57.631161869531937 ], [ 14.921061005283407, 57.631225712469096 ], [ 14.921174364979885, 57.631279196736173 ], [ 14.921468309012223, 57.631393645701152 ], [ 14.921606842605026, 57.631437038121582 ], [ 14.921758657546318, 57.631464924544098 ], [ 14.921917770616471, 57.631476205965875 ], [ 14.92233196492937, 57.631483358757485 ], [ 14.922491904121738, 57.631477608675972 ], [ 14.922504765808176, 57.631475735210991 ], [ 14.922502902049422, 57.631504668328475 ], [ 14.92251568003395, 57.631616398657577 ], [ 14.922384754425687, 57.631761974643062 ], [ 14.922322312769793, 57.63185992935496 ], [ 14.922202597885139, 57.632162069183366 ], [ 14.922188129625626, 57.632213839104914 ], [ 14.922162691591581, 57.632368180013763 ], [ 14.92212156131408, 57.632601578023632 ], [ 14.922035002208011, 57.632953755065003 ], [ 14.921990783846843, 57.63297446791826 ], [ 14.921930206149424, 57.633005982765205 ], [ 14.921605264849875, 57.633193670127092 ], [ 14.921517736030763, 57.633254181057907 ], [ 14.921226998085698, 57.63349679966381 ], [ 14.921156473406324, 57.633570241234814 ], [ 14.921113287892613, 57.633649516351021 ], [ 14.921099013613132, 57.633731739157078 ], [ 14.921114170189941, 57.633813916512523 ], [ 14.921208231885018, 57.634070263684706 ], [ 14.92124518817845, 57.634139719807891 ], [ 14.921303204369579, 57.634204919207463 ], [ 14.921482777594894, 57.634369712594982 ], [ 14.921573592119255, 57.63443719301312 ], [ 14.921686841417497, 57.634494128547281 ], [ 14.9217290365807, 57.634508339346702 ], [ 14.921913996224792, 57.634915387041211 ], [ 14.921967868205405, 57.634997178857681 ], [ 14.922051122614747, 57.6350715784736 ], [ 14.922160416281379, 57.6351355983453 ], [ 14.922291360399148, 57.635186667746005 ], [ 14.922438696764464, 57.635222735986517 ], [ 14.92335727175319, 57.635390367675228 ], [ 14.923493319120485, 57.635408327583967 ], [ 14.923633116178776, 57.635413443160282 ], [ 14.923772463634753, 57.63540556074534 ], [ 14.924524025642482, 57.63532733278501 ], [ 14.924677105721122, 57.635302786890172 ], [ 14.9248181767469, 57.63526260300268 ], [ 14.925202697752937, 57.63512537820565 ], [ 14.925302117975331, 57.635112073048461 ], [ 14.925316266377529, 57.63524082888064 ], [ 14.925343493557721, 57.635329552360503 ], [ 14.925404380497358, 57.635413349341981 ], [ 14.925780161950371, 57.635804486531576 ], [ 14.92585870764483, 57.635870700392296 ], [ 14.925958289130483, 57.635928237930926 ], [ 14.92651134553731, 57.636194681777155 ], [ 14.926894491192504, 57.636497439393153 ], [ 14.927026721496867, 57.636578177089994 ], [ 14.927666198027561, 57.636882446489487 ], [ 14.927910451921203, 57.637135219224803 ], [ 14.927968056389345, 57.637185965430128 ], [ 14.928469098027261, 57.637565908712389 ], [ 14.928583985850061, 57.637635694527027 ], [ 14.928724079717689, 57.637690727095034 ], [ 14.928882907671024, 57.637728464131804 ], [ 14.929053132286688, 57.637747162343757 ], [ 14.929226889646221, 57.63774595795347 ], [ 14.929915821112347, 57.637701258888953 ], [ 14.930085046815677, 57.6376802144759 ], [ 14.930241965932044, 57.637640303762964 ], [ 14.930379332496194, 57.637583369626327 ], [ 14.930943003777415, 57.637292825345718 ], [ 14.931086860493016, 57.637193264177135 ], [ 14.931650531774237, 57.636656866971954 ], [ 14.931722316871388, 57.636565328614978 ], [ 14.931753243374278, 57.636467441959795 ], [ 14.93179162220571, 57.636077110299524 ], [ 14.932000083692561, 57.635556360160017 ], [ 14.932284137382467, 57.635305916510418 ], [ 14.932353559646401, 57.63522818242685 ], [ 14.932392840146477, 57.635144626998901 ], [ 14.932400422041781, 57.635058561828856 ], [ 14.932390151647779, 57.634954103328816 ], [ 14.932490868388376, 57.634838571298395 ], [ 14.932984178791722, 57.634683232384575 ], [ 14.932990222579217, 57.634681310265513 ], [ 14.93340559135204, 57.634547898061072 ], [ 14.93545243325649, 57.634285068650094 ], [ 14.935622195313471, 57.634252172568075 ], [ 14.935774087821152, 57.634199929787378 ], [ 14.935900536350387, 57.634130945424026 ], [ 14.937674295011472, 57.632917630494319 ], [ 14.941255342837085, 57.631421478163823 ], [ 14.941374372466107, 57.631360314755653 ], [ 14.94146773131647, 57.63128748854745 ], [ 14.941531531573306, 57.631206032237159 ], [ 14.941563116353144, 57.631119337926961 ], [ 14.941561170346551, 57.631031015870875 ], [ 14.941525774592588, 57.630944744134148 ], [ 14.941458403104029, 57.630864115424515 ], [ 14.941361861483918, 57.630792487473848 ], [ 14.941240170089657, 57.630732843201528 ], [ 14.941098396610162, 57.630687666484405 ], [ 14.940524474093227, 57.630545008228367 ], [ 14.939908651381204, 57.630380159083423 ], [ 14.939749937423025, 57.630348308075682 ], [ 14.939582307610399, 57.630334873200489 ], [ 14.939413129716627, 57.630340444976582 ], [ 14.939249839557261, 57.630364778501118 ], [ 14.938352140517418, 57.6305547865676 ], [ 14.938166713295946, 57.630610072526743 ], [ 14.937393471682235, 57.630918145625415 ], [ 14.936641231243017, 57.631025539389881 ], [ 14.936485024432637, 57.631039477427926 ], [ 14.936422691605562, 57.630983003201784 ], [ 14.936331941858674, 57.630916258343426 ], [ 14.936219172777877, 57.630859951728254 ], [ 14.936088486657068, 57.630816131721105 ], [ 14.935944637573103, 57.630786392446055 ], [ 14.935645670539712, 57.63074157597341 ], [ 14.935637773885816, 57.630736945675459 ], [ 14.935710647550271, 57.630536995235595 ], [ 14.935934826023427, 57.630254089934645 ], [ 14.935944370623172, 57.630255193356561 ], [ 14.936091295815167, 57.630257601359538 ], [ 14.93623660695936, 57.630245727085416 ], [ 14.936375500579418, 57.630219963042329 ], [ 14.93699973178553, 57.630068885123045 ], [ 14.937145124131449, 57.630023392098927 ], [ 14.937269759416582, 57.629962760301268 ], [ 14.937368230174274, 57.629889620252563 ], [ 14.937436264120491, 57.629807145165508 ], [ 14.937598734321101, 57.629537033403359 ], [ 14.937630815712883, 57.629460529299365 ], [ 14.937636593060041, 57.62938218164026 ], [ 14.937615876793005, 57.629304561210233 ], [ 14.937569346665654, 57.629230214947505 ], [ 14.937498529450886, 57.629161582371083 ], [ 14.937335735312999, 57.629032917903274 ], [ 14.937119758281501, 57.628831628653259 ], [ 14.93702454654367, 57.628760612378372 ], [ 14.936904626118862, 57.628701286437021 ], [ 14.936764887951057, 57.628656070494891 ], [ 14.936611031249164, 57.628626808735596 ], [ 14.936192027356244, 57.628571868842087 ], [ 14.936050080496818, 57.628560285097727 ], [ 14.935906544985876, 57.628562328122726 ], [ 14.935765948155057, 57.628577933474659 ], [ 14.935632724645489, 57.62860660891964 ], [ 14.935511076532368, 57.62864744996029 ], [ 14.935263722228719, 57.628747917583475 ], [ 14.93487955094257, 57.628903325058623 ], [ 14.934757109516344, 57.62896449430059 ], [ 14.934660832697844, 57.629037856973845 ], [ 14.934594851270292, 57.629120265369401 ], [ 14.934561996184875, 57.629208183683673 ], [ 14.934563677098016, 57.629297839731429 ], [ 14.934582004019317, 57.629383695979264 ], [ 14.934224938866535, 57.6293322270581 ], [ 14.934080439275364, 57.629318774529203 ], [ 14.933933778009305, 57.629319520244671 ], [ 14.933789781685599, 57.629334439662188 ], [ 14.93365318921834, 57.629363041767235 ], [ 14.933378024940904, 57.629436702505615 ], [ 14.93270168517423, 57.629463860735768 ], [ 14.932480648984406, 57.629489734248715 ], [ 14.931749963823894, 57.629635037898758 ], [ 14.931601993990249, 57.629674074287479 ], [ 14.931471903088253, 57.629728377631437 ], [ 14.931365106794912, 57.629795687222938 ], [ 14.931286051033968, 57.62987320090383 ], [ 14.931238026892343, 57.629957691729622 ], [ 14.931071256030357, 57.630414042099552 ], [ 14.93076269891929, 57.630744430696154 ], [ 14.930737121461229, 57.630766111957541 ], [ 14.930752689983638, 57.630722750798313 ], [ 14.930749376012219, 57.630632250282233 ], [ 14.930711873741339, 57.630471628687069 ], [ 14.930769130469223, 57.630449444588415 ], [ 14.93088458176228, 57.630380339828378 ], [ 14.930969895691463, 57.630299656742359 ], [ 14.931021157994421, 57.630211097062535 ], [ 14.931141408274978, 57.629882044121032 ], [ 14.931156435114177, 57.629796127408284 ], [ 14.931139330477738, 57.629710321933345 ], [ 14.931090774167492, 57.629628037937422 ], [ 14.931026757127322, 57.629566141166471 ], [ 14.931022243868908, 57.629503313527842 ], [ 14.930989707475721, 57.629397300484264 ], [ 14.930816012825614, 57.629082547661923 ], [ 14.930754446166535, 57.629001915674003 ], [ 14.9306639727229, 57.628929516036386 ], [ 14.930410111518585, 57.628764984132687 ], [ 14.930367779397617, 57.628739644126433 ], [ 14.929998216390079, 57.628535183044228 ], [ 14.92957143306692, 57.628239472338031 ], [ 14.929423311687923, 57.62816050301609 ], [ 14.92895715343929, 57.627969329757896 ], [ 14.928937003223091, 57.627855225029222 ], [ 14.928932375123106, 57.627834409470388 ], [ 14.928850558216364, 57.627529517551054 ], [ 14.928845864955974, 57.627470883860951 ], [ 14.928883461013159, 57.627367359269918 ], [ 14.928956146010133, 57.627323856693792 ], [ 14.929131249688229, 57.627305473338588 ], [ 14.929173316418618, 57.627301627886915 ], [ 14.929305406218361, 57.627320239509636 ], [ 14.929650631973473, 57.627374270029783 ], [ 14.929676657634943, 57.627378091996874 ], [ 14.929890093753176, 57.627407394182661 ], [ 14.930076719695498, 57.627420892366921 ], [ 14.93034282638105, 57.627423391936027 ], [ 14.930644536796489, 57.627444647541559 ], [ 14.930713418570523, 57.627456136165172 ], [ 14.930726582028322, 57.627470456024355 ], [ 14.930813305524934, 57.627533111611214 ], [ 14.930919618022786, 57.627586419034806 ], [ 14.93104206901752, 57.627628648180838 ], [ 14.931176684209785, 57.627658428490435 ], [ 14.931501535726776, 57.627712540274516 ], [ 14.931777930209503, 57.627758580887338 ], [ 14.931920887697036, 57.627774981653218 ], [ 14.932067024337988, 57.627777329462738 ], [ 14.932211561257967, 57.62776554754187 ], [ 14.932349771895705, 57.627740021162687 ], [ 14.932477136568302, 57.627701585045983 ], [ 14.932589490271212, 57.627651496068481 ], [ 14.932655484640549, 57.627616198376238 ], [ 14.932883791531204, 57.62760444461987 ], [ 14.933041211967273, 57.627587774238513 ], [ 14.933189382313914, 57.627554785476882 ], [ 14.933322465353314, 57.627506777895597 ], [ 14.933435218236887, 57.627445642713461 ], [ 14.93352319902902, 57.627373788310983 ], [ 14.933683533035898, 57.627209249359886 ], [ 14.933740271090238, 57.627134924593577 ], [ 14.93377039607844, 57.627056267642956 ], [ 14.933772871555181, 57.626975984668512 ], [ 14.933747612352089, 57.6268968377913 ], [ 14.933600639886771, 57.626603525043215 ], [ 14.933542120285233, 57.626521270556545 ], [ 14.933453736090081, 57.626447054336417 ], [ 14.933339141434983, 57.626383944817178 ], [ 14.933203074092191, 57.626334551246558 ], [ 14.933051159595307, 57.626300915799057 ], [ 14.932889678658624, 57.626284429135126 ], [ 14.932725307508898, 57.62628577289869 ], [ 14.93227103036801, 57.626314389107684 ], [ 14.932127731174297, 57.626330567001638 ], [ 14.931606648122404, 57.626416415455125 ], [ 14.931457812185952, 57.626449971660762 ], [ 14.931324401135049, 57.626498697096721 ], [ 14.931140661001857, 57.626581337093619 ], [ 14.931060006166488, 57.626569816068553 ], [ 14.930956380391756, 57.626558838037504 ], [ 14.930528800282808, 57.626528916613829 ], [ 14.930432197843105, 57.626525288299256 ], [ 14.930217838484426, 57.626524128256477 ], [ 14.92993508761098, 57.626476671030517 ], [ 14.929881517109511, 57.626468751496937 ], [ 14.929563207173437, 57.626427943239072 ], [ 14.929536779709686, 57.626424804665128 ], [ 14.929328308580009, 57.626401999887037 ], [ 14.929181182111302, 57.626393310557681 ], [ 14.929033562745664, 57.626399128959676 ], [ 14.928778018098454, 57.626421933739572 ], [ 14.928760284642317, 57.626423625191869 ], [ 14.928500256503561, 57.626450030656741 ], [ 14.928300436075428, 57.626485236588074 ], [ 14.92802200235481, 57.626556950793741 ], [ 14.927890203370849, 57.626599613133216 ], [ 14.92777590492512, 57.626654883353893 ], [ 14.927683254685517, 57.62672075575481 ], [ 14.927642088797372, 57.626765843612034 ], [ 14.927497265787677, 57.626854625218499 ], [ 14.927392464899114, 57.626936038177824 ], [ 14.927324901457427, 57.627028060431968 ], [ 14.927176954320027, 57.627325715403018 ], [ 14.927152887388157, 57.627399006048016 ], [ 14.927152620062575, 57.627473420594079 ], [ 14.927168310935645, 57.627573038144547 ], [ 14.92717462752803, 57.62760169555493 ], [ 14.92722003911863, 57.627761696208118 ], [ 14.927277210389592, 57.627979570334446 ], [ 14.927291990394501, 57.628052123111679 ], [ 14.927230187922506, 57.628092347949071 ], [ 14.927016410444445, 57.628264036325426 ], [ 14.927012433655095, 57.628267261242868 ], [ 14.926871802884005, 57.628382418114334 ], [ 14.926480690379151, 57.62852739053875 ], [ 14.926346353608453, 57.628589950727417 ], [ 14.926240849542591, 57.628666736658865 ], [ 14.92589346114074, 57.628988646848548 ], [ 14.925832527581875, 57.62905899512549 ], [ 14.925796015707489, 57.629134035294463 ], [ 14.925675765426927, 57.629520322402115 ], [ 14.92566527723678, 57.629606888211597 ], [ 14.925687240011985, 57.629692835109658 ], [ 14.925740771650682, 57.629774711184695 ], [ 14.92582372213503, 57.629849228045302 ], [ 14.925932759883468, 57.629913392887509 ], [ 14.925989472241032, 57.629940686846261 ], [ 14.925981289877654, 57.629946466956781 ], [ 14.925914892824107, 57.630017285469457 ], [ 14.925873721764054, 57.630093397435445 ], [ 14.925859156453232, 57.630172252107961 ], [ 14.925871685015357, 57.630251206840342 ], [ 14.925967559510678, 57.63053914451789 ], [ 14.926021455013608, 57.630635021286352 ], [ 14.926093222412467, 57.63070148355343 ], [ 14.926084215222867, 57.630725684353429 ], [ 14.926068672874717, 57.630805701760885 ], [ 14.926081057967698, 57.630885876756977 ], [ 14.926153224669191, 57.631103658273425 ], [ 14.926126116199306, 57.631345535396349 ], [ 14.926134779206206, 57.63143971021514 ], [ 14.926181328701912, 57.631530645969455 ], [ 14.926263555687539, 57.631614027357514 ], [ 14.926377558094639, 57.631685897593499 ] ] ], [ [ [ 14.918030740368927, 57.632952435479645 ], [ 14.918049212818946, 57.632860443695037 ], [ 14.918049212818946, 57.632688777046077 ], [ 14.918036705786593, 57.632612940970652 ], [ 14.91799957165057, 57.632539451072667 ], [ 14.917938959321631, 57.632470581112074 ], [ 14.917856744113543, 57.632408461921429 ], [ 14.917629605093953, 57.632265404656465 ], [ 14.917522769446038, 57.632209522063533 ], [ 14.917398554639055, 57.632165114491201 ], [ 14.917261200335647, 57.632133697689824 ], [ 14.917115394671811, 57.632116344002952 ], [ 14.916966114242857, 57.632113645761791 ], [ 14.916511837101973, 57.632127951573416 ], [ 14.916369618377878, 57.632139287077187 ], [ 14.916233399597639, 57.632163930428291 ], [ 14.916107489293799, 57.632201102143718 ], [ 14.9154928790444, 57.632422840816346 ], [ 14.915379197926107, 57.632472441280314 ], [ 14.914751226135182, 57.63280147075232 ], [ 14.914641201688488, 57.632872995826887 ], [ 14.914562136101372, 57.63295541863917 ], [ 14.914429064869937, 57.633140638253295 ], [ 14.914386040998586, 57.633199863905986 ], [ 14.914155078996327, 57.63334411333355 ], [ 14.914145282693228, 57.633350349548103 ], [ 14.91370436619561, 57.633636455447537 ], [ 14.913623664561705, 57.633699402853949 ], [ 14.913564879727705, 57.633768961875958 ], [ 14.913529840877088, 57.63384296804265 ], [ 14.913463034966012, 57.634064696690203 ], [ 14.913453269899005, 57.634149581037441 ], [ 14.913474700805061, 57.634233848635162 ], [ 14.913526500192667, 57.634314245752911 ], [ 14.913606667980538, 57.634387668127566 ], [ 14.913712108724921, 57.63445128081996 ], [ 14.913838751141027, 57.634502627669967 ], [ 14.913981705303771, 57.634539726125261 ], [ 14.91423556650812, 57.634589793336794 ], [ 14.914389940761774, 57.634611263771646 ], [ 14.914549184857433, 57.634616092674037 ], [ 14.91470710097777, 57.634604092108525 ], [ 14.914857542990553, 57.634575729123675 ], [ 14.914994655657569, 57.634532107576902 ], [ 14.915248516861919, 57.634431973406642 ], [ 14.915344818050231, 57.634387311738323 ], [ 14.915426815918696, 57.634335105465446 ], [ 14.915600429767752, 57.634204990503861 ], [ 14.915867661775614, 57.63411583986511 ], [ 14.916385664504428, 57.633943029818802 ], [ 14.916520903189832, 57.633886415270737 ], [ 14.91663076244347, 57.633815790569457 ], [ 14.916951428660568, 57.633558297065846 ], [ 14.917034659645003, 57.633471715850447 ], [ 14.917051062057784, 57.633448566609836 ], [ 14.917185494484762, 57.633422000706567 ], [ 14.91731691852913, 57.633388556321407 ], [ 14.917435014895229, 57.633343041807514 ], [ 14.917770229328351, 57.633187516514127 ], [ 14.917887986956012, 57.63311979572557 ], [ 14.917976167145687, 57.633040223341858 ], [ 14.918030740368927, 57.632952435479645 ] ] ], [ [ [ 14.917111294401034, 57.637467035321791 ], [ 14.917161718487824, 57.637416749847219 ], [ 14.91729532941158, 57.637259408527306 ], [ 14.917307296794879, 57.637244587738181 ], [ 14.91752107427294, 57.636965662459339 ], [ 14.91756696696465, 57.636883295920541 ], [ 14.917581544523964, 57.636797698849158 ], [ 14.91756423192674, 57.636712247683178 ], [ 14.917525419599299, 57.636613563228586 ], [ 14.917516214437294, 57.636460808057322 ], [ 14.917563268610445, 57.636234118529934 ], [ 14.917563799053807, 57.636141163093676 ], [ 14.917527234039955, 57.636050291025406 ], [ 14.91745526048304, 57.63596569470716 ], [ 14.917241482106682, 57.635772586424608 ], [ 14.917140471281323, 57.635699930557394 ], [ 14.917013424197075, 57.635640118840335 ], [ 14.916865904722632, 57.635595770721935 ], [ 14.916704373289514, 57.635568828432142 ], [ 14.916535903965505, 57.635560471914381 ], [ 14.916367874654668, 57.635571067144738 ], [ 14.915953681240101, 57.635621132453387 ], [ 14.915816475343158, 57.63564476786884 ], [ 14.91568929014824, 57.635681069465704 ], [ 14.915576168012665, 57.635728883425799 ], [ 14.915081807145492, 57.635979209633419 ], [ 14.914983060121516, 57.636039420237736 ], [ 14.914906739717328, 57.636108342746439 ], [ 14.91466624005454, 57.636380122304566 ], [ 14.91461782006062, 57.636449728745198 ], [ 14.914592348330304, 57.636522741826319 ], [ 14.91459057515106, 57.636597010883087 ], [ 14.914612552753114, 57.636670348267977 ], [ 14.914740469856401, 57.636944237582235 ], [ 14.914763168413687, 57.6371811646477 ], [ 14.914793615008369, 57.637278637561614 ], [ 14.914864579646958, 57.637369871375036 ], [ 14.914972361638887, 57.637450108456704 ], [ 14.915238735238123, 57.63760694950183 ], [ 14.915360448856484, 57.63767906506714 ], [ 14.915462940190251, 57.63773011276767 ], [ 14.915580346972996, 57.637770931006443 ], [ 14.915709148772448, 57.637800295888269 ], [ 14.915845483477748, 57.637817326938254 ], [ 14.916110396655053, 57.637837683803355 ], [ 14.916265593504791, 57.637841537323688 ], [ 14.916419301844179, 57.63782942985609 ], [ 14.916565845519404, 57.637801808490558 ], [ 14.91669981295396, 57.637759693197246 ], [ 14.916816256987744, 57.637704639165918 ], [ 14.916910877566199, 57.637638679382661 ], [ 14.917111294401034, 57.637467035321791 ] ] ] ] } }
]
}
